ONEWEB-0205             
1 48226U 21031S   25111.21687426  .00001590  00000+0  42548-2 0  9994
2 48226  87.9088  13.6211 0001510  94.2907 265.8396 13.14497445192841
ONEWEB-0206             
1 48227U 21031T   25111.26603397  .00000154  00000+0  38055-3 0  9999
2 48227  87.9091  13.5939 0001875  87.8605 272.2739 13.14501567192797
ONEWEB-0182             
1 48228U 21031U   25111.71797733  .00000229  00000+0  58379-3 0  9992
2 48228  87.9089  13.5456 0001998  77.5216 282.6137 13.14501215193078
ONEWEB-0186             
1 48229U 21031V   25111.27237985  .00000111  00000+0  26391-3 0  9991
2 48229  87.9100  13.5943 0001966  77.9601 282.1748 13.14498781192953
ONEWEB-0181             
1 48230U 21031W   25111.25016744  .00000241  00000+0  61672-3 0  9994
2 48230  87.9093  13.6709 0001719  85.4621 274.6705 13.14505004192809
ONEWEB-0188             
1 48231U 21031X   25111.21211125 -.00000181  00000+0 -52373-3 0  9994
2 48231  87.9104  13.6684 0001925  87.0793 273.0557 13.14501727192707
ONEWEB-0220             
1 48232U 21031Y   25111.25176228  .00000234  00000+0  59597-3 0  9995
2 48232  87.9071  13.6113 0002432  76.0562 284.0839 13.14502097192979
ONEWEB-0165             
1 48233U 21031Z   25111.66090073 -.00001918  00000+0 -52113-2 0  9992
2 48233  87.9085  13.5652 0002338  72.0141 288.1244 13.14487681192983
